{
  "type": "FeatureCollection",
  "features": [
    {
      "type": "Feature",
      "properties": {
        "norad_id": 44334,
        "name": "EUTELSAT 7C",
        "group": "eutelsat",
        "lat": 0.026834589923890807,
        "lon": -20.14023259540742,
        "alt_km": 35788.2398685402,
        "timestamp": "2025-12-09T16:56:36.251783+00:00",
        "meta_object_name": "EUTELSAT 7C",
        "meta_object_id": "2019-034B",
        "meta_epoch": "2025-12-09T06:50:38.879808",
        "meta_mean_motion": 1.00270496,
        "meta_eccentricity": 0.000338,
        "meta_inclination": 0.073,
        "meta_ra_of_asc_node": 179.5768,
        "meta_arg_of_pericenter": 62.7682,
        "meta_mean_anomaly": 305.5774,
        "meta_ephemeris_type": 0,
        "meta_classification_type": "U",
        "meta_norad_cat_id": 44334,
        "meta_element_set_no": 999,
        "meta_rev_at_epoch": 493,
        "meta_bstar": 0,
        "meta_mean_motion_dot": 5e-07,
        "meta_mean_motion_ddot": 0,
        "tle_line1": "1 44334U 19034B   25343.28517222  .00000050  00000+0  00000+0 0  9994",
        "tle_line2": "2 44334   0.0730 179.5768 0003380  62.7682 305.5774  1.00270496  4934"
      },
      "geometry": {
        "type": "Point",
        "coordinates": [
          -20.14023259540742,
          0.026834589923890807
        ]
      }
    },
    {
      "type": "Feature",
      "properties": {
        "norad_id": 44624,
        "name": "EUTELSAT 5 WEST B",
        "group": "eutelsat",
        "lat": -0.01983401428719013,
        "lon": -32.122639983065596,
        "alt_km": 35780.87525300322,
        "timestamp": "2025-12-09T16:56:36.251795+00:00",
        "meta_object_name": "EUTELSAT 5 WEST B",
        "meta_object_id": "2019-067A",
        "meta_epoch": "2025-12-09T04:59:20.915808",
        "meta_mean_motion": 1.00271075,
        "meta_eccentricity": 0.0003516,
        "meta_inclination": 0.0644,
        "meta_ra_of_asc_node": 341.3724,
        "meta_arg_of_pericenter": 277.7318,
        "meta_mean_anomaly": 248.9352,
        "meta_ephemeris_type": 0,
        "meta_classification_type": "U",
        "meta_norad_cat_id": 44624,
        "meta_element_set_no": 999,
        "meta_rev_at_epoch": 2253,
        "meta_bstar": 0,
        "meta_mean_motion_dot": -4e-07,
        "meta_mean_motion_ddot": 0,
        "tle_line1": "1 44624U 19067A   25343.20788097 -.00000040  00000+0  00000+0 0  9994",
        "tle_line2": "2 44624   0.0644 341.3724 0003516 277.7318 248.9352  1.00271075 22538"
      },
      "geometry": {
        "type": "Point",
        "coordinates": [
          -32.122639983065596,
          -0.01983401428719013
        ]
      }
    },
    {
      "type": "Feature",
      "properties": {
        "norad_id": 45027,
        "name": "EUTELSAT KONNECT",
        "group": "eutelsat",
        "lat": -0.062222487977299866,
        "lon": -19.953268722291362,
        "alt_km": 35782.70178542487,
        "timestamp": "2025-12-09T16:56:36.251807+00:00",
        "meta_object_name": "EUTELSAT KONNECT",
        "meta_object_id": "2020-005B",
        "meta_epoch": "2025-12-09T06:50:38.879808",
        "meta_mean_motion": 1.00268405,
        "meta_eccentricity": 0.000175,
        "meta_inclination": 0.0703,
        "meta_ra_of_asc_node": 96.733,
        "meta_arg_of_pericenter": 189.0908,
        "meta_mean_anomaly": 262.3109,
        "meta_ephemeris_type": 0,
        "meta_classification_type": "U",
        "meta_norad_cat_id": 45027,
        "meta_element_set_no": 999,
        "meta_rev_at_epoch": 2243,
        "meta_bstar": 0,
        "meta_mean_motion_dot": 5.1e-07,
        "meta_mean_motion_ddot": 0,
        "tle_line1": "1 45027U 20005B   25343.28517222  .00000051  00000+0  00000+0 0  9995",
        "tle_line2": "2 45027   0.0703  96.7330 0001750 189.0908 262.3109  1.00268405 22436"
      },
      "geometry": {
        "type": "Point",
        "coordinates": [
          -19.953268722291362,
          -0.062222487977299866
        ]
      }
    },
    {
      "type": "Feature",
      "properties": {
        "norad_id": 49056,
        "name": "EUTELSAT QUANTUM",
        "group": "eutelsat",
        "lat": 0.010851835799536561,
        "lon": 20.57952877751462,
        "alt_km": 35791.56430980683,
        "timestamp": "2025-12-09T16:56:36.251819+00:00",
        "meta_object_name": "EUTELSAT QUANTUM",
        "meta_object_id": "2021-069B",
        "meta_epoch": "2025-12-09T03:31:36.820416",
        "meta_mean_motion": 1.00270774,
        "meta_eccentricity": 0.00037625,
        "meta_inclination": 0.0132,
        "meta_ra_of_asc_node": 12.1818,
        "meta_arg_of_pericenter": 259.1599,
        "meta_mean_anomaly": 267.4033,
        "meta_ephemeris_type": 0,
        "meta_classification_type": "U",
        "meta_norad_cat_id": 49056,
        "meta_element_set_no": 999,
        "meta_rev_at_epoch": 1602,
        "meta_bstar": 0,
        "meta_mean_motion_dot": 1.28e-06,
        "meta_mean_motion_ddot": 0,
        "tle_line1": "1 49056U 21069B   25343.14695394  .00000128  00000+0  00000+0 0  9999",
        "tle_line2": "2 49056   0.0132  12.1818 0003762 259.1599 267.4033  1.00270774 16023"
      },
      "geometry": {
        "type": "Point",
        "coordinates": [
          20.57952877751462,
          0.010851835799536561
        ]
      }
    },
    {
      "type": "Feature",
      "properties": {
        "norad_id": 53765,
        "name": "EUTELSAT KONNECT VHTS",
        "group": "eutelsat",
        "lat": -0.05225905379753574,
        "lon": -24.42335125959259,
        "alt_km": 35787.72342509514,
        "timestamp": "2025-12-09T16:56:36.251830+00:00",
        "meta_object_name": "EUTELSAT KONNECT VHTS",
        "meta_object_id": "2022-110A",
        "meta_epoch": "2025-12-09T06:50:38.879808",
        "meta_mean_motion": 1.00270775,
        "meta_eccentricity": 0.0002613,
        "meta_inclination": 0.0635,
        "meta_ra_of_asc_node": 102.5978,
        "meta_arg_of_pericenter": 135.651,
        "meta_mean_anomaly": 305.3988,
        "meta_ephemeris_type": 0,
        "meta_classification_type": "U",
        "meta_norad_cat_id": 53765,
        "meta_element_set_no": 999,
        "meta_rev_at_epoch": 492,
        "meta_bstar": 0,
        "meta_mean_motion_dot": 1.9e-07,
        "meta_mean_motion_ddot": 0,
        "tle_line1": "1 53765U 22110A   25343.28517222  .00000019  00000+0  00000+0 0  9996",
        "tle_line2": "2 53765   0.0635 102.5978 0002613 135.6510 305.3988  1.00270775  4927"
      },
      "geometry": {
        "type": "Point",
        "coordinates": [
          -24.42335125959259,
          -0.05225905379753574
        ]
      }
    },
    {
      "type": "Feature",
      "properties": {
        "norad_id": 54048,
        "name": "EUTELSAT HOTBIRD 13F",
        "group": "eutelsat",
        "lat": 0.040278503759346745,
        "lon": -14.145048380792367,
        "alt_km": 35777.0440424818,
        "timestamp": "2025-12-09T16:56:36.251842+00:00",
        "meta_object_name": "EUTELSAT HOTBIRD 13F",
        "meta_object_id": "2022-134A",
        "meta_epoch": "2025-12-09T01:39:02.259360",
        "meta_mean_motion": 1.00271707,
        "meta_eccentricity": 0.0002159,
        "meta_inclination": 0.0489,
        "meta_ra_of_asc_node": 292.5872,
        "meta_arg_of_pericenter": 60.3329,
        "meta_mean_anomaly": 122.9214,
        "meta_ephemeris_type": 0,
        "meta_classification_type": "U",
        "meta_norad_cat_id": 54048,
        "meta_element_set_no": 999,
        "meta_rev_at_epoch": 1147,
        "meta_bstar": 0,
        "meta_mean_motion_dot": 8.9e-07,
        "meta_mean_motion_ddot": 0,
        "tle_line1": "1 54048U 22134A   25343.06877615  .00000089  00000+0  00000+0 0  9995",
        "tle_line2": "2 54048   0.0489 292.5872 0002159  60.3329 122.9214  1.00271707 11478"
      },
      "geometry": {
        "type": "Point",
        "coordinates": [
          -14.145048380792367,
          0.040278503759346745
        ]
      }
    },
    {
      "type": "Feature",
      "properties": {
        "norad_id": 54225,
        "name": "EUTELSAT HOTBIRD 13G",
        "group": "eutelsat",
        "lat": 0.041357139968043195,
        "lon": -14.163639371737077,
        "alt_km": 35793.16977429394,
        "timestamp": "2025-12-09T16:56:36.251871+00:00",
        "meta_object_name": "EUTELSAT HOTBIRD 13G",
        "meta_object_id": "2022-146A",
        "meta_epoch": "2025-12-09T00:10:38.547840",
        "meta_mean_motion": 1.00269396,
        "meta_eccentricity": 0.00016652,
        "meta_inclination": 0.0487,
        "meta_ra_of_asc_node": 236.9876,
        "meta_arg_of_pericenter": 310.6292,
        "meta_mean_anomaly": 266.0423,
        "meta_ephemeris_type": 0,
        "meta_classification_type": "U",
        "meta_norad_cat_id": 54225,
        "meta_element_set_no": 999,
        "meta_rev_at_epoch": 555,
        "meta_bstar": 0,
        "meta_mean_motion_dot": 8.9e-07,
        "meta_mean_motion_ddot": 0,
        "tle_line1": "1 54225U 22146A   25343.00739060  .00000089  00000+0  00000+0 0  9990",
        "tle_line2": "2 54225   0.0487 236.9876 0001665 310.6292 266.0423  1.00269396  5555"
      },
      "geometry": {
        "type": "Point",
        "coordinates": [
          -14.163639371737077,
          0.041357139968043195
        ]
      }
    }
  ]
}